{
    "links": {
        "self": "http://www.neowsapp.com/rest/v1/neo/3550612?api_key=iIulBulltgU6a56xZRHN4H3l9WmuAYTsLGpBGhQ2"
    },
    "id": "3550612",
    "neo_reference_id": "3550612",
    "name": "(2010 VT21)",
    "designation": "2010 VT21",
    "nasa_jpl_url": "http://ssd.jpl.nasa.gov/sbdb.cgi?sstr=3550612",
    "absolute_magnitude_h": 27.3,
    "estimated_diameter": {
        "kilometers": {
            "estimated_diameter_min": 0.0092162655,
            "estimated_diameter_max": 0.0206081961
        },
        "meters": {
            "estimated_diameter_min": 9.216265485,
            "estimated_diameter_max": 20.6081961232
        },
        "miles": {
            "estimated_diameter_min": 0.0057267201,
            "estimated_diameter_max": 0.0128053354
        },
        "feet": {
            "estimated_diameter_min": 30.2370924539,
            "estimated_diameter_max": 67.6121941689
        }
    },
    "is_potentially_hazardous_asteroid": false,
    "close_approach_data": [
        {
            "close_approach_date": "2009-05-21",
            "close_approach_date_full": "2009-May-21 15:10",
            "epoch_date_close_approach": 1242918600000,
            "relative_velocity": {
                "kilometers_per_second": "17.2486056426",
                "kilometers_per_hour": "62094.9803133089",
                "miles_per_hour": "38583.4059619002"
            },
            "miss_distance": {
                "astronomical": "0.4997450424",
                "lunar": "194.4008214936",
                "kilometers": "74760793.886099688",
                "miles": "46454203.2107961744"
            },
            "orbiting_body": "Earth"
        },
        {
            "close_approach_date": "2010-10-28",
            "close_approach_date_full": "2010-Oct-28 16:52",
            "epoch_date_close_approach": 1288284720000,
            "relative_velocity": {
                "kilometers_per_second": "4.4801555604",
                "kilometers_per_hour": "16128.5600173162",
                "miles_per_hour": "10021.6599729818"
            },
            "miss_distance": {
                "astronomical": "0.0269336822",
                "lunar": "10.4772023758",
                "kilometers": "4029221.488376914",
                "miles": "2503642.1374488532"
            },
            "orbiting_body": "Earth"
        }
    ],
    "orbital_data": {
        "orbit_id": "6",
        "orbit_determination_date": "2017-04-06 08:55:52",
        "first_observation_date": "2010-11-06",
        "last_observation_date": "2010-11-06",
        "data_arc_in_days": null,
        "observations_used": 15,
        "orbit_uncertainty": "9",
        "minimum_orbit_intersection": ".0256469",
        "jupiter_tisserand_invariant": "5.772",
        "epoch_osculation": "2455506.5",
        "eccentricity": ".08569717200247215",
        "semi_major_axis": "1.066810671811262",
        "inclination": "7.291732695318634",
        "ascending_node_longitude": "221.5531757281379",
        "orbital_period": "402.4662378864982",
        "perihelion_distance": ".9753880141749794",
        "perihelion_argument": "114.0885671291225",
        "aphelion_distance": "1.158233329447545",
        "perihelion_time": "2455440.529119593709",
        "mean_anomaly": "59.00996086276061",
        "mean_motion": ".8944849682062664",
        "equinox": "J2000",
        "orbit_class": {
            "orbit_class_type": "APO",
            "orbit_class_description": "Near-Earth asteroid orbits which cross the Earth’s orbit similar to that of 1862 Apollo",
            "orbit_class_range": "a (semi-major axis) > 1.0 AU; q (perihelion) < 1.017 AU"
        }
    },
    "is_sentry_object": false
}